{
  "type": "FeatureCollection",
  "features": [
    {
      "type": "Feature",
      "properties": {
        "norad_id": 39160,
        "name": "VNREDSAT 1",
        "group": "resource",
        "lat": 27.51346377361776,
        "lon": 30.68502232784515,
        "alt_km": 675.6962126135586,
        "timestamp": "2025-12-05T07:38:18.505337+00:00",
        "meta_object_name": "VNREDSAT 1",
        "meta_object_id": "2013-021B",
        "meta_epoch": "2025-12-04T18:23:50.815104",
        "meta_mean_motion": 14.64904471,
        "meta_eccentricity": 0.0001349,
        "meta_inclination": 97.9385,
        "meta_ra_of_asc_node": 34.3206,
        "meta_arg_of_pericenter": 83.6428,
        "meta_mean_anomaly": 276.4929,
        "meta_ephemeris_type": 0,
        "meta_classification_type": "U",
        "meta_norad_cat_id": 39160,
        "meta_element_set_no": 999,
        "meta_rev_at_epoch": 67182,
        "meta_bstar": 0.00026543,
        "meta_mean_motion_dot": 1.373e-05,
        "meta_mean_motion_ddot": 0,
        "tle_line1": "1 39160U 13021B   25338.76656036  .00001373  00000+0  26543-3 0  9992",
        "tle_line2": "2 39160  97.9385  34.3206 0001349  83.6428 276.4929 14.64904471671821"
      },
      "geometry": {
        "type": "Point",
        "coordinates": [
          30.68502232784515,
          27.51346377361776
        ]
      }
    },
    {
      "type": "Feature",
      "properties": {
        "norad_id": 39227,
        "name": "ARIRANG-5 (KOMPSAT-5)",
        "group": "resource",
        "lat": 49.10342774651151,
        "lon": -7.385872922622142,
        "alt_km": 546.8466075429096,
        "timestamp": "2025-12-05T07:38:18.505347+00:00",
        "meta_object_name": "ARIRANG-5 (KOMPSAT-5)",
        "meta_object_id": "2013-042A",
        "meta_epoch": "2025-12-04T18:17:32.499744",
        "meta_mean_motion": 15.04511877,
        "meta_eccentricity": 0.0004173,
        "meta_inclination": 97.6151,
        "meta_ra_of_asc_node": 163.1802,
        "meta_arg_of_pericenter": 79.1291,
        "meta_mean_anomaly": 281.0404,
        "meta_ephemeris_type": 0,
        "meta_classification_type": "U",
        "meta_norad_cat_id": 39227,
        "meta_element_set_no": 999,
        "meta_rev_at_epoch": 67462,
        "meta_bstar": 0.00024026,
        "meta_mean_motion_dot": 3.305e-05,
        "meta_mean_motion_ddot": 0,
        "tle_line1": "1 39227U 13042A   25338.76218171  .00003305  00000+0  24026-3 0  9994",
        "tle_line2": "2 39227  97.6151 163.1802 0004173  79.1291 281.0404 15.04511877674622"
      },
      "geometry": {
        "type": "Point",
        "coordinates": [
          -7.385872922622142,
          49.10342774651151
        ]
      }
    },
    {
      "type": "Feature",
      "properties": {
        "norad_id": 39418,
        "name": "SKYSAT-A",
        "group": "resource",
        "lat": -44.21996904181649,
        "lon": 37.03094272967759,
        "alt_km": 529.4619562780235,
        "timestamp": "2025-12-05T07:38:18.505357+00:00",
        "meta_object_name": "SKYSAT-A",
        "meta_object_id": "2013-066C",
        "meta_epoch": "2025-12-04T15:56:50.841312",
        "meta_mean_motion": 15.11511917,
        "meta_eccentricity": 0.0020403,
        "meta_inclination": 97.4121,
        "meta_ra_of_asc_node": 29.1189,
        "meta_arg_of_pericenter": 266.4251,
        "meta_mean_anomaly": 93.4646,
        "meta_ephemeris_type": 0,
        "meta_classification_type": "U",
        "meta_norad_cat_id": 39418,
        "meta_element_set_no": 999,
        "meta_rev_at_epoch": 65908,
        "meta_bstar": 0.00044387,
        "meta_mean_motion_dot": 7.494e-05,
        "meta_mean_motion_ddot": 0,
        "tle_line1": "1 39418U 13066C   25338.66447733  .00007494  00000+0  44387-3 0  9994",
        "tle_line2": "2 39418  97.4121  29.1189 0020403 266.4251  93.4646 15.11511917659088"
      },
      "geometry": {
        "type": "Point",
        "coordinates": [
          37.03094272967759,
          -44.21996904181649
        ]
      }
    },
    {
      "type": "Feature",
      "properties": {
        "norad_id": 39419,
        "name": "DUBAISAT-2",
        "group": "resource",
        "lat": -4.280819663488421,
        "lon": 149.3947744013154,
        "alt_km": 552.7220694020143,
        "timestamp": "2025-12-05T07:38:18.505368+00:00",
        "meta_object_name": "DUBAISAT-2",
        "meta_object_id": "2013-066D",
        "meta_epoch": "2025-12-04T18:05:09.535776",
        "meta_mean_motion": 15.08235646,
        "meta_eccentricity": 0.001131,
        "meta_inclination": 97.4438,
        "meta_ra_of_asc_node": 329.4084,
        "meta_arg_of_pericenter": 350.8034,
        "meta_mean_anomaly": 9.2985,
        "meta_ephemeris_type": 0,
        "meta_classification_type": "U",
        "meta_norad_cat_id": 39419,
        "meta_element_set_no": 999,
        "meta_rev_at_epoch": 65706,
        "meta_bstar": 0.00059954,
        "meta_mean_motion_dot": 9.24e-05,
        "meta_mean_motion_ddot": 0,
        "tle_line1": "1 39419U 13066D   25338.75358259  .00009240  00000+0  59954-3 0  9996",
        "tle_line2": "2 39419  97.4438 329.4084 0011310 350.8034   9.2985 15.08235646657069"
      },
      "geometry": {
        "type": "Point",
        "coordinates": [
          149.3947744013154,
          -4.280819663488421
        ]
      }
    },
    {
      "type": "Feature",
      "properties": {
        "norad_id": 39574,
        "name": "GPM-CORE",
        "group": "resource",
        "lat": 30.444975655340475,
        "lon": -106.50998675796012,
        "alt_km": 432.1573692499642,
        "timestamp": "2025-12-05T07:38:18.505378+00:00",
        "meta_object_name": "GPM-CORE",
        "meta_object_id": "2014-009C",
        "meta_epoch": "2025-12-04T15:57:33.319008",
        "meta_mean_motion": 15.45245406,
        "meta_eccentricity": 0.0010521,
        "meta_inclination": 64.9752,
        "meta_ra_of_asc_node": 239.742,
        "meta_arg_of_pericenter": 268.843,
        "meta_mean_anomaly": 91.1506,
        "meta_ephemeris_type": 0,
        "meta_classification_type": "U",
        "meta_norad_cat_id": 39574,
        "meta_element_set_no": 999,
        "meta_rev_at_epoch": 66776,
        "meta_bstar": 0.0006063,
        "meta_mean_motion_dot": 0.00028915,
        "meta_mean_motion_ddot": 0,
        "tle_line1": "1 39574U 14009C   25338.66496897  .00028915  00000+0  60630-3 0  9990",
        "tle_line2": "2 39574  64.9752 239.7420 0010521 268.8430  91.1506 15.45245406667760"
      },
      "geometry": {
        "type": "Point",
        "coordinates": [
          -106.50998675796012,
          30.444975655340475
        ]
      }
    },
    {
      "type": "Feature",
      "properties": {
        "norad_id": 39634,
        "name": "SENTINEL-1A",
        "group": "resource",
        "lat": 40.60731445776951,
        "lon": -22.41480393959622,
        "alt_km": 691.9455247817223,
        "timestamp": "2025-12-05T07:38:18.505388+00:00",
        "meta_object_name": "SENTINEL-1A",
        "meta_object_id": "2014-016A",
        "meta_epoch": "2025-12-04T18:17:06.055296",
        "meta_mean_motion": 14.59201773,
        "meta_eccentricity": 0.0001246,
        "meta_inclination": 98.1805,
        "meta_ra_of_asc_node": 344.1211,
        "meta_arg_of_pericenter": 89.5923,
        "meta_mean_anomaly": 270.542,
        "meta_ephemeris_type": 0,
        "meta_classification_type": "U",
        "meta_norad_cat_id": 39634,
        "meta_element_set_no": 999,
        "meta_rev_at_epoch": 62166,
        "meta_bstar": 4.7994e-05,
        "meta_mean_motion_dot": 1.8e-06,
        "meta_mean_motion_ddot": 0,
        "tle_line1": "1 39634U 14016A   25338.76187564  .00000180  00000+0  47994-4 0  9997",
        "tle_line2": "2 39634  98.1805 344.1211 0001246  89.5923 270.5420 14.59201773621663"
      },
      "geometry": {
        "type": "Point",
        "coordinates": [
          -22.41480393959622,
          40.60731445776951
        ]
      }
    },
    {
      "type": "Feature",
      "properties": {
        "norad_id": 39731,
        "name": "KAZEOSAT 1",
        "group": "resource",
        "lat": 65.6154102938145,
        "lon": -109.71618719686377,
        "alt_km": 744.568498022546,
        "timestamp": "2025-12-05T07:38:18.505398+00:00",
        "meta_object_name": "KAZEOSAT 1",
        "meta_object_id": "2014-024A",
        "meta_epoch": "2025-12-04T17:47:40.369344",
        "meta_mean_motion": 14.42055496,
        "meta_eccentricity": 0.000106,
        "meta_inclination": 98.3443,
        "meta_ra_of_asc_node": 50.8281,
        "meta_arg_of_pericenter": 99.2817,
        "meta_mean_anomaly": 260.8493,
        "meta_ephemeris_type": 0,
        "meta_classification_type": "U",
        "meta_norad_cat_id": 39731,
        "meta_element_set_no": 999,
        "meta_rev_at_epoch": 61053,
        "meta_bstar": 0.00016587,
        "meta_mean_motion_dot": 5.02e-06,
        "meta_mean_motion_ddot": 0,
        "tle_line1": "1 39731U 14024A   25338.74143946  .00000502  00000+0  16587-3 0  9999",
        "tle_line2": "2 39731  98.3443  50.8281 0001060  99.2817 260.8493 14.42055496610530"
      },
      "geometry": {
        "type": "Point",
        "coordinates": [
          -109.71618719686377,
          65.6154102938145
        ]
      }
    }
  ]
}